50 50
Demo-50x50 833
1 00833U 00000ABC 00001.00000000  .00000000  00000-0  00000+0 0    07
2 00833  53.0000 115.2000 0000001   0.0000 230.4000 15.07000000    06
Demo-50x50 834
1 00834U 00000ABC 00001.00000000  .00000000  00000-0  00000+0 0    08
2 00834  53.0000 115.2000 0000001   0.0000 237.6000 15.07000000    06
Demo-50x50 835
1 00835U 00000ABC 00001.00000000  .00000000  00000-0  00000+0 0    09
2 00835  53.0000 115.2000 0000001   0.0000 244.8000 15.07000000    07
Demo-50x50 836
1 00836U 00000ABC 00001.00000000  .00000000  00000-0  00000+0 0    00
2 00836  53.0000 115.2000 0000001   0.0000 252.0000 15.07000000    09
Demo-50x50 837
1 00837U 00000ABC 00001.00000000  .00000000  00000-0  00000+0 0    01
2 00837  53.0000 115.2000 0000001   0.0000 259.2000 15.07000000    09
Demo-50x50 838
1 00838U 00000ABC 00001.00000000  .00000000  00000-0  00000+0 0    02
2 00838  53.0000 115.2000 0000001   0.0000 266.4000 15.07000000    00
Demo-50x50 839
1 00839U 00000ABC 00001.00000000  .00000000  00000-0  00000+0 0    03
2 00839  53.0000 115.2000 0000001   0.0000 273.6000 15.07000000    01
Demo-50x50 840
1 00840U 00000ABC 00001.00000000  .00000000  00000-0  00000+0 0    05
2 00840  53.0000 115.2000 0000001   0.0000 280.8000 15.07000000    03
Demo-50x50 841
1 00841U 00000ABC 00001.00000000  .00000000  00000-0  00000+0 0    06
2 00841  53.0000 115.2000 0000001   0.0000 288.0000 15.07000000    04
Demo-50x50 842
1 00842U 00000ABC 00001.00000000  .00000000  00000-0  00000+0 0    07
2 00842  53.0000 115.2000 0000001   0.0000 295.2000 15.07000000    05
Demo-50x50 843
1 00843U 00000ABC 00001.00000000  .00000000  00000-0  00000+0 0    08
2 00843  53.0000 115.2000 0000001   0.0000 302.4000 15.07000000    07
Demo-50x50 844
1 00844U 00000ABC 00001.00000000  .00000000  00000-0  00000+0 0    09
2 00844  53.0000 115.2000 0000001   0.0000 309.6000 15.07000000    07
Demo-50x50 845
1 00845U 00000ABC 00001.00000000  .00000000  00000-0  00000+0 0    00
2 00845  53.0000 115.2000 0000001   0.0000 316.8000 15.07000000    08
Demo-50x50 846
1 00846U 00000ABC 00001.00000000  .00000000  00000-0  00000+0 0    01
2 00846  53.0000 115.2000 0000001   0.0000 324.0000 15.07000000    00
Demo-50x50 847
1 00847U 00000ABC 00001.00000000  .00000000  00000-0  00000+0 0    02
2 00847  53.0000 115.2000 0000001   0.0000 331.2000 15.07000000    01
Demo-50x50 848
1 00848U 00000ABC 00001.00000000  .00000000  00000-0  00000+0 0    03
2 00848  53.0000 115.2000 0000001   0.0000 338.4000 15.07000000    01
Demo-50x50 849
1 00849U 00000ABC 00001.00000000  .00000000  00000-0  00000+0 0    04
2 00849  53.0000 115.2000 0000001   0.0000 345.6000 15.07000000    02
Demo-50x50 850
1 00850U 00000ABC 00001.00000000  .00000000  00000-0  00000+0 0    06
2 00850  53.0000 115.2000 0000001   0.0000 352.8000 15.07000000    04
Demo-50x50 851
1 00851U 00000ABC 00001.00000000  .00000000  00000-0  00000+0 0    07
2 00851  53.0000 122.4000 0000001   0.0000   0.0000 15.07000000    07
Demo-50x50 852
1 00852U 00000ABC 00001.00000000  .00000000  00000-0  00000+0 0    08
2 00852  53.0000 122.4000 0000001   0.0000   7.2000 15.07000000    07
Demo-50x50 853
1 00853U 00000ABC 00001.00000000  .00000000  00000-0  00000+0 0    09
2 00853  53.0000 122.4000 0000001   0.0000  14.4000 15.07000000    08
Demo-50x50 854
1 00854U 00000ABC 00001.00000000  .00000000  00000-0  00000+0 0    00
2 00854  53.0000 122.4000 0000001   0.0000  21.6000 15.07000000    09
Demo-50x50 855
1 00855U 00000ABC 00001.00000000  .00000000  00000-0  00000+0 0    01
2 00855  53.0000 122.4000 0000001   0.0000  28.8000 15.07000000    09
Demo-50x50 856
1 00856U 00000ABC 00001.00000000  .00000000  00000-0  00000+0 0    02
2 00856  53.0000 122.4000 0000001   0.0000  36.0000 15.07000000    01
Demo-50x50 857
1 00857U 00000ABC 00001.00000000  .00000000  00000-0  00000+0 0    03
2 00857  53.0000 122.4000 0000001   0.0000  43.2000 15.07000000    02
Demo-50x50 858
1 00858U 00000ABC 00001.00000000  .00000000  00000-0  00000+0 0    04
2 00858  53.0000 122.4000 0000001   0.0000  50.4000 15.07000000    03
Demo-50x50 859
1 00859U 00000ABC 00001.00000000  .00000000  00000-0  00000+0 0    05
2 00859  53.0000 122.4000 0000001   0.0000  57.6000 15.07000000    03
Demo-50x50 860
1 00860U 00000ABC 00001.00000000  .00000000  00000-0  00000+0 0    07
2 00860  53.0000 122.4000 0000001   0.0000  64.8000 15.07000000    05
Demo-50x50 861
1 00861U 00000ABC 00001.00000000  .00000000  00000-0  00000+0 0    08
2 00861  53.0000 122.4000 0000001   0.0000  72.0000 15.07000000    07
Demo-50x50 862
1 00862U 00000ABC 00001.00000000  .00000000  00000-0  00000+0 0    09
2 00862  53.0000 122.4000 0000001   0.0000  79.2000 15.07000000    07
Demo-50x50 863
1 00863U 00000ABC 00001.00000000  .00000000  00000-0  00000+0 0    00
2 00863  53.0000 122.4000 0000001   0.0000  86.4000 15.07000000    08
Demo-50x50 864
1 00864U 00000ABC 00001.00000000  .00000000  00000-0  00000+0 0    01
2 00864  53.0000 122.4000 0000001   0.0000  93.6000 15.07000000    09
Demo-50x50 865
1 00865U 00000ABC 00001.00000000  .00000000  00000-0  00000+0 0    02
2 00865  53.0000 122.4000 0000001   0.0000 100.8000 15.07000000    01
Demo-50x50 866
1 00866U 00000ABC 00001.00000000  .00000000  00000-0  00000+0 0    03
2 00866  53.0000 122.4000 0000001   0.0000 108.0000 15.07000000    02
Demo-50x50 867
1 00867U 00000ABC 00001.00000000  .00000000  00000-0  00000+0 0    04
2 00867  53.0000 122.4000 0000001   0.0000 115.2000 15.07000000    03
Demo-50x50 868
1 00868U 00000ABC 00001.00000000  .00000000  00000-0  00000+0 0    05
2 00868  53.0000 122.4000 0000001   0.0000 122.4000 15.07000000    04
Demo-50x50 869
1 00869U 00000ABC 00001.00000000  .00000000  00000-0  00000+0 0    06
2 00869  53.0000 122.4000 0000001   0.0000 129.6000 15.07000000    04
Demo-50x50 870
1 00870U 00000ABC 00001.00000000  .00000000  00000-0  00000+0 0    08
2 00870  53.0000 122.4000 0000001   0.0000 136.8000 15.07000000    06
Demo-50x50 871
1 00871U 00000ABC 00001.00000000  .00000000  00000-0  00000+0 0    09
2 00871  53.0000 122.4000 0000001   0.0000 144.0000 15.07000000    08
Demo-50x50 872
1 00872U 00000ABC 00001.00000000  .00000000  00000-0  00000+0 0    00
2 00872  53.0000 122.4000 0000001   0.0000 151.2000 15.07000000    09
Demo-50x50 873
1 00873U 00000ABC 00001.00000000  .00000000  00000-0  00000+0 0    01
2 00873  53.0000 122.4000 0000001   0.0000 158.4000 15.07000000    09
Demo-50x50 874
1 00874U 00000ABC 00001.00000000  .00000000  00000-0  00000+0 0    02
2 00874  53.0000 122.4000 0000001   0.0000 165.6000 15.07000000    00
Demo-50x50 875
1 00875U 00000ABC 00001.00000000  .00000000  00000-0  00000+0 0    03
2 00875  53.0000 122.4000 0000001   0.0000 172.8000 15.07000000    01
Demo-50x50 876
1 00876U 00000ABC 00001.00000000  .00000000  00000-0  00000+0 0    04
2 00876  53.0000 122.4000 0000001   0.0000 180.0000 15.07000000    03
Demo-50x50 877
1 00877U 00000ABC 00001.00000000  .00000000  00000-0  00000+0 0    05
2 00877  53.0000 122.4000 0000001   0.0000 187.2000 15.07000000    03
Demo-50x50 878
1 00878U 00000ABC 00001.00000000  .00000000  00000-0  00000+0 0    06
2 00878  53.0000 122.4000 0000001   0.0000 194.4000 15.07000000    04
Demo-50x50 879
1 00879U 00000ABC 00001.00000000  .00000000  00000-0  00000+0 0    07
2 00879  53.0000 122.4000 0000001   0.0000 201.6000 15.07000000    06
Demo-50x50 880
1 00880U 00000ABC 00001.00000000  .00000000  00000-0  00000+0 0    09
2 00880  53.0000 122.4000 0000001   0.0000 208.8000 15.07000000    07
Demo-50x50 881
1 00881U 00000ABC 00001.00000000  .00000000  00000-0  00000+0 0    00
2 00881  53.0000 122.4000 0000001   0.0000 216.0000 15.07000000    09
Demo-50x50 882
1 00882U 00000ABC 00001.00000000  .00000000  00000-0  00000+0 0    01
2 00882  53.0000 122.4000 0000001   0.0000 223.2000 15.07000000    00
Demo-50x50 883
1 00883U 00000ABC 00001.00000000  .00000000  00000-0  00000+0 0    02
2 00883  53.0000 122.4000 0000001   0.0000 230.4000 15.07000000    01
Demo-50x50 884
1 00884U 00000ABC 00001.00000000  .00000000  00000-0  00000+0 0    03
2 00884  53.0000 122.4000 0000001   0.0000 237.6000 15.07000000    01
Demo-50x50 885
1 00885U 00000ABC 00001.00000000  .00000000  00000-0  00000+0 0    04
2 00885  53.0000 122.4000 0000001   0.0000 244.8000 15.07000000    02
Demo-50x50 886
1 00886U 00000ABC 00001.00000000  .00000000  00000-0  00000+0 0    05
2 00886  53.0000 122.4000 0000001   0.0000 252.0000 15.07000000    04
Demo-50x50 887
1 00887U 00000ABC 00001.00000000  .00000000  00000-0  00000+0 0    06
2 00887  53.0000 122.4000 0000001   0.0000 259.2000 15.07000000    04
Demo-50x50 888
1 00888U 00000ABC 00001.00000000  .00000000  00000-0  00000+0 0    07
2 00888  53.0000 122.4000 0000001   0.0000 266.4000 15.07000000    05
Demo-50x50 889
1 00889U 00000ABC 00001.00000000  .00000000  00000-0  00000+0 0    08
2 00889  53.0000 122.4000 0000001   0.0000 273.6000 15.07000000    06
Demo-50x50 890
1 00890U 00000ABC 00001.00000000  .00000000  00000-0  00000+0 0    00
2 00890  53.0000 122.4000 0000001   0.0000 280.8000 15.07000000    08
Demo-50x50 891
1 00891U 00000ABC 00001.00000000  .00000000  00000-0  00000+0 0    01
2 00891  53.0000 122.4000 0000001   0.0000 288.0000 15.07000000    09
Demo-50x50 892
1 00892U 00000ABC 00001.00000000  .00000000  00000-0  00000+0 0    02
2 00892  53.0000 122.4000 0000001   0.0000 295.2000 15.07000000    00
Demo-50x50 893
1 00893U 00000ABC 00001.00000000  .00000000  00000-0  00000+0 0    03
2 00893  53.0000 122.4000 0000001   0.0000 302.4000 15.07000000    02
Demo-50x50 894
1 00894U 00000ABC 00001.00000000  .00000000  00000-0  00000+0 0    04
2 00894  53.0000 122.4000 0000001   0.0000 309.6000 15.07000000    02
Demo-50x50 895
1 00895U 00000ABC 00001.00000000  .00000000  00000-0  00000+0 0    05
2 00895  53.0000 122.4000 0000001   0.0000 316.8000 15.07000000    03
Demo-50x50 896
1 00896U 00000ABC 00001.00000000  .00000000  00000-0  00000+0 0    06
2 00896  53.0000 122.4000 0000001   0.0000 324.0000 15.07000000    05
